[{"zipcode":"540","name":"南投市","full_name":"南投縣南投市","state_name":null,"city_name":"南投縣"},{"zipcode":"541","name":"中寮鄉","full_name":"南投縣中寮鄉","state_name":null,"city_name":"南投縣"},{"zipcode":"542","name":"草屯鎮","full_name":"南投縣草屯鎮","state_name":null,"city_name":"南投縣"},{"zipcode":"544","name":"國姓鄉","full_name":"南投縣國姓鄉","state_name":null,"city_name":"南投縣"},{"zipcode":"545","name":"埔里鎮","full_name":"南投縣埔里鎮","state_name":null,"city_name":"南投縣"},{"zipcode":"546","name":"仁愛鄉","full_name":"南投縣仁愛鄉","state_name":null,"city_name":"南投縣"},{"zipcode":"551","name":"名間鄉","full_name":"南投縣名間鄉","state_name":null,"city_name":"南投縣"},{"zipcode":"552","name":"集集鎮","full_name":"南投縣集集鎮","state_name":null,"city_name":"南投縣"},{"zipcode":"553","name":"水里鄉","full_name":"南投縣水里鄉","state_name":null,"city_name":"南投縣"},{"zipcode":"555","name":"魚池鄉","full_name":"南投縣魚池鄉","state_name":null,"city_name":"南投縣"},{"zipcode":"556","name":"信義鄉","full_name":"南投縣信義鄉","state_name":null,"city_name":"南投縣"},{"zipcode":"557","name":"竹山鎮","full_name":"南投縣竹山鎮","state_name":null,"city_name":"南投縣"},{"zipcode":"558","name":"鹿谷鄉","full_name":"南投縣鹿谷鄉","state_name":null,"city_name":"南投縣"}]