[{"zipcode":"260","name":"宜蘭市","full_name":"宜蘭縣宜蘭市","state_name":null,"city_name":"宜蘭縣"},{"zipcode":"261","name":"頭城鎮","full_name":"宜蘭縣頭城鎮","state_name":null,"city_name":"宜蘭縣"},{"zipcode":"262","name":"礁溪鄉","full_name":"宜蘭縣礁溪鄉","state_name":null,"city_name":"宜蘭縣"},{"zipcode":"263","name":"壯圍鄉","full_name":"宜蘭縣壯圍鄉","state_name":null,"city_name":"宜蘭縣"},{"zipcode":"264","name":"員山鄉","full_name":"宜蘭縣員山鄉","state_name":null,"city_name":"宜蘭縣"},{"zipcode":"265","name":"羅東鎮","full_name":"宜蘭縣羅東鎮","state_name":null,"city_name":"宜蘭縣"},{"zipcode":"266","name":"三星鄉","full_name":"宜蘭縣三星鄉","state_name":null,"city_name":"宜蘭縣"},{"zipcode":"267","name":"大同鄉","full_name":"宜蘭縣大同鄉","state_name":null,"city_name":"宜蘭縣"},{"zipcode":"268","name":"五結鄉","full_name":"宜蘭縣五結鄉","state_name":null,"city_name":"宜蘭縣"},{"zipcode":"269","name":"冬山鄉","full_name":"宜蘭縣冬山鄉","state_name":null,"city_name":"宜蘭縣"},{"zipcode":"270","name":"蘇澳鎮","full_name":"宜蘭縣蘇澳鎮","state_name":null,"city_name":"宜蘭縣"},{"zipcode":"272","name":"南澳鄉","full_name":"宜蘭縣南澳鄉","state_name":null,"city_name":"宜蘭縣"}]