[{"zipcode":"500","name":"彰化市","full_name":"彰化縣彰化市","state_name":null,"city_name":"彰化縣"},{"zipcode":"502","name":"芬園鄉","full_name":"彰化縣芬園鄉","state_name":null,"city_name":"彰化縣"},{"zipcode":"503","name":"花壇鄉","full_name":"彰化縣花壇鄉","state_name":null,"city_name":"彰化縣"},{"zipcode":"504","name":"秀水鄉","full_name":"彰化縣秀水鄉","state_name":null,"city_name":"彰化縣"},{"zipcode":"505","name":"鹿港鎮","full_name":"彰化縣鹿港鎮","state_name":null,"city_name":"彰化縣"},{"zipcode":"506","name":"福興鄉","full_name":"彰化縣福興鄉","state_name":null,"city_name":"彰化縣"},{"zipcode":"507","name":"線西鄉","full_name":"彰化縣線西鄉","state_name":null,"city_name":"彰化縣"},{"zipcode":"508","name":"和美鎮","full_name":"彰化縣和美鎮","state_name":null,"city_name":"彰化縣"},{"zipcode":"509","name":"伸港鄉","full_name":"彰化縣伸港鄉","state_name":null,"city_name":"彰化縣"},{"zipcode":"510","name":"員林市","full_name":"彰化縣員林市","state_name":null,"city_name":"彰化縣"},{"zipcode":"511","name":"社頭鄉","full_name":"彰化縣社頭鄉","state_name":null,"city_name":"彰化縣"},{"zipcode":"512","name":"永靖鄉","full_name":"彰化縣永靖鄉","state_name":null,"city_name":"彰化縣"},{"zipcode":"513","name":"埔心鄉","full_name":"彰化縣埔心鄉","state_name":null,"city_name":"彰化縣"},{"zipcode":"514","name":"溪湖鎮","full_name":"彰化縣溪湖鎮","state_name":null,"city_name":"彰化縣"},{"zipcode":"515","name":"大村鄉","full_name":"彰化縣大村鄉","state_name":null,"city_name":"彰化縣"},{"zipcode":"516","name":"埔鹽鄉","full_name":"彰化縣埔鹽鄉","state_name":null,"city_name":"彰化縣"},{"zipcode":"520","name":"田中鎮","full_name":"彰化縣田中鎮","state_name":null,"city_name":"彰化縣"},{"zipcode":"521","name":"北斗鎮","full_name":"彰化縣北斗鎮","state_name":null,"city_name":"彰化縣"},{"zipcode":"522","name":"田尾鄉","full_name":"彰化縣田尾鄉","state_name":null,"city_name":"彰化縣"},{"zipcode":"523","name":"埤頭鄉","full_name":"彰化縣埤頭鄉","state_name":null,"city_name":"彰化縣"},{"zipcode":"524","name":"溪州鄉","full_name":"彰化縣溪州鄉","state_name":null,"city_name":"彰化縣"},{"zipcode":"525","name":"竹塘鄉","full_name":"彰化縣竹塘鄉","state_name":null,"city_name":"彰化縣"},{"zipcode":"526","name":"二林鎮","full_name":"彰化縣二林鎮","state_name":null,"city_name":"彰化縣"},{"zipcode":"527","name":"大城鄉","full_name":"彰化縣大城鄉","state_name":null,"city_name":"彰化縣"},{"zipcode":"528","name":"芳苑鄉","full_name":"彰化縣芳苑鄉","state_name":null,"city_name":"彰化縣"},{"zipcode":"530","name":"二水鄉","full_name":"彰化縣二水鄉","state_name":null,"city_name":"彰化縣"}]