[{"zipcode":"900","name":"屏東市","full_name":"屏東縣屏東市","state_name":null,"city_name":"屏東縣"},{"zipcode":"901","name":"三地門鄉","full_name":"屏東縣三地門鄉","state_name":null,"city_name":"屏東縣"},{"zipcode":"902","name":"霧臺鄉","full_name":"屏東縣霧臺鄉","state_name":null,"city_name":"屏東縣"},{"zipcode":"903","name":"瑪家鄉","full_name":"屏東縣瑪家鄉","state_name":null,"city_name":"屏東縣"},{"zipcode":"904","name":"九如鄉","full_name":"屏東縣九如鄉","state_name":null,"city_name":"屏東縣"},{"zipcode":"905","name":"里港鄉","full_name":"屏東縣里港鄉","state_name":null,"city_name":"屏東縣"},{"zipcode":"906","name":"高樹鄉","full_name":"屏東縣高樹鄉","state_name":null,"city_name":"屏東縣"},{"zipcode":"907","name":"鹽埔鄉","full_name":"屏東縣鹽埔鄉","state_name":null,"city_name":"屏東縣"},{"zipcode":"908","name":"長治鄉","full_name":"屏東縣長治鄉","state_name":null,"city_name":"屏東縣"},{"zipcode":"909","name":"麟洛鄉","full_name":"屏東縣麟洛鄉","state_name":null,"city_name":"屏東縣"},{"zipcode":"911","name":"竹田鄉","full_name":"屏東縣竹田鄉","state_name":null,"city_name":"屏東縣"},{"zipcode":"912","name":"內埔鄉","full_name":"屏東縣內埔鄉","state_name":null,"city_name":"屏東縣"},{"zipcode":"913","name":"萬丹鄉","full_name":"屏東縣萬丹鄉","state_name":null,"city_name":"屏東縣"},{"zipcode":"920","name":"潮州鎮","full_name":"屏東縣潮州鎮","state_name":null,"city_name":"屏東縣"},{"zipcode":"921","name":"泰武鄉","full_name":"屏東縣泰武鄉","state_name":null,"city_name":"屏東縣"},{"zipcode":"922","name":"來義鄉","full_name":"屏東縣來義鄉","state_name":null,"city_name":"屏東縣"},{"zipcode":"923","name":"萬巒鄉","full_name":"屏東縣萬巒鄉","state_name":null,"city_name":"屏東縣"},{"zipcode":"924","name":"崁頂鄉","full_name":"屏東縣崁頂鄉","state_name":null,"city_name":"屏東縣"},{"zipcode":"925","name":"新埤鄉","full_name":"屏東縣新埤鄉","state_name":null,"city_name":"屏東縣"},{"zipcode":"926","name":"南州鄉","full_name":"屏東縣南州鄉","state_name":null,"city_name":"屏東縣"},{"zipcode":"927","name":"林邊鄉","full_name":"屏東縣林邊鄉","state_name":null,"city_name":"屏東縣"},{"zipcode":"928","name":"東港鎮","full_name":"屏東縣東港鎮","state_name":null,"city_name":"屏東縣"},{"zipcode":"929","name":"琉球鄉","full_name":"屏東縣琉球鄉","state_name":null,"city_name":"屏東縣"},{"zipcode":"931","name":"佳冬鄉","full_name":"屏東縣佳冬鄉","state_name":null,"city_name":"屏東縣"},{"zipcode":"932","name":"新園鄉","full_name":"屏東縣新園鄉","state_name":null,"city_name":"屏東縣"},{"zipcode":"940","name":"枋寮鄉","full_name":"屏東縣枋寮鄉","state_name":null,"city_name":"屏東縣"},{"zipcode":"941","name":"枋山鄉","full_name":"屏東縣枋山鄉","state_name":null,"city_name":"屏東縣"},{"zipcode":"942","name":"春日鄉","full_name":"屏東縣春日鄉","state_name":null,"city_name":"屏東縣"},{"zipcode":"943","name":"獅子鄉","full_name":"屏東縣獅子鄉","state_name":null,"city_name":"屏東縣"},{"zipcode":"944","name":"車城鄉","full_name":"屏東縣車城鄉","state_name":null,"city_name":"屏東縣"},{"zipcode":"945","name":"牡丹鄉","full_name":"屏東縣牡丹鄉","state_name":null,"city_name":"屏東縣"},{"zipcode":"946","name":"恆春鎮","full_name":"屏東縣恆春鎮","state_name":null,"city_name":"屏東縣"},{"zipcode":"947","name":"滿州鄉","full_name":"屏東縣滿州鄉","state_name":null,"city_name":"屏東縣"}]