[{"zipcode":"302","name":"竹北市","full_name":"新竹縣竹北市","state_name":null,"city_name":"新竹縣"},{"zipcode":"303","name":"湖口鄉","full_name":"新竹縣湖口鄉","state_name":null,"city_name":"新竹縣"},{"zipcode":"304","name":"新豐鄉","full_name":"新竹縣新豐鄉","state_name":null,"city_name":"新竹縣"},{"zipcode":"305","name":"新埔鎮","full_name":"新竹縣新埔鎮","state_name":null,"city_name":"新竹縣"},{"zipcode":"306","name":"關西鎮","full_name":"新竹縣關西鎮","state_name":null,"city_name":"新竹縣"},{"zipcode":"307","name":"芎林鄉","full_name":"新竹縣芎林鄉","state_name":null,"city_name":"新竹縣"},{"zipcode":"308","name":"寶山鄉","full_name":"新竹縣寶山鄉","state_name":null,"city_name":"新竹縣"},{"zipcode":"310","name":"竹東鎮","full_name":"新竹縣竹東鎮","state_name":null,"city_name":"新竹縣"},{"zipcode":"311","name":"五峰鄉","full_name":"新竹縣五峰鄉","state_name":null,"city_name":"新竹縣"},{"zipcode":"312","name":"橫山鄉","full_name":"新竹縣橫山鄉","state_name":null,"city_name":"新竹縣"},{"zipcode":"313","name":"尖石鄉","full_name":"新竹縣尖石鄉","state_name":null,"city_name":"新竹縣"},{"zipcode":"314","name":"北埔鄉","full_name":"新竹縣北埔鄉","state_name":null,"city_name":"新竹縣"},{"zipcode":"315","name":"峨眉鄉","full_name":"新竹縣峨眉鄉","state_name":null,"city_name":"新竹縣"}]