[{"zipcode":"950","name":"臺東市","full_name":"臺東縣臺東市","state_name":null,"city_name":"臺東縣"},{"zipcode":"951","name":"綠島鄉","full_name":"臺東縣綠島鄉","state_name":null,"city_name":"臺東縣"},{"zipcode":"952","name":"蘭嶼鄉","full_name":"臺東縣蘭嶼鄉","state_name":null,"city_name":"臺東縣"},{"zipcode":"953","name":"延平鄉","full_name":"臺東縣延平鄉","state_name":null,"city_name":"臺東縣"},{"zipcode":"954","name":"卑南鄉","full_name":"臺東縣卑南鄉","state_name":null,"city_name":"臺東縣"},{"zipcode":"955","name":"鹿野鄉","full_name":"臺東縣鹿野鄉","state_name":null,"city_name":"臺東縣"},{"zipcode":"956","name":"關山鎮","full_name":"臺東縣關山鎮","state_name":null,"city_name":"臺東縣"},{"zipcode":"957","name":"海端鄉","full_name":"臺東縣海端鄉","state_name":null,"city_name":"臺東縣"},{"zipcode":"958","name":"池上鄉","full_name":"臺東縣池上鄉","state_name":null,"city_name":"臺東縣"},{"zipcode":"959","name":"東河鄉","full_name":"臺東縣東河鄉","state_name":null,"city_name":"臺東縣"},{"zipcode":"961","name":"成功鎮","full_name":"臺東縣成功鎮","state_name":null,"city_name":"臺東縣"},{"zipcode":"962","name":"長濱鄉","full_name":"臺東縣長濱鄉","state_name":null,"city_name":"臺東縣"},{"zipcode":"963","name":"太麻里鄉","full_name":"臺東縣太麻里鄉","state_name":null,"city_name":"臺東縣"},{"zipcode":"964","name":"金峰鄉","full_name":"臺東縣金峰鄉","state_name":null,"city_name":"臺東縣"},{"zipcode":"965","name":"大武鄉","full_name":"臺東縣大武鄉","state_name":null,"city_name":"臺東縣"},{"zipcode":"966","name":"達仁鄉","full_name":"臺東縣達仁鄉","state_name":null,"city_name":"臺東縣"}]