[{"zipcode":"700","name":"中西區","full_name":"臺南市中西區","state_name":null,"city_name":"臺南市"},{"zipcode":"701","name":"東區","full_name":"臺南市東區","state_name":null,"city_name":"臺南市"},{"zipcode":"702","name":"南區","full_name":"臺南市南區","state_name":null,"city_name":"臺南市"},{"zipcode":"704","name":"北區","full_name":"臺南市北區","state_name":null,"city_name":"臺南市"},{"zipcode":"708","name":"安平區","full_name":"臺南市安平區","state_name":null,"city_name":"臺南市"},{"zipcode":"709","name":"安南區","full_name":"臺南市安南區","state_name":null,"city_name":"臺南市"},{"zipcode":"710","name":"永康區","full_name":"臺南市永康區","state_name":null,"city_name":"臺南市"},{"zipcode":"711","name":"歸仁區","full_name":"臺南市歸仁區","state_name":null,"city_name":"臺南市"},{"zipcode":"712","name":"新化區","full_name":"臺南市新化區","state_name":null,"city_name":"臺南市"},{"zipcode":"713","name":"左鎮區","full_name":"臺南市左鎮區","state_name":null,"city_name":"臺南市"},{"zipcode":"714","name":"玉井區","full_name":"臺南市玉井區","state_name":null,"city_name":"臺南市"},{"zipcode":"715","name":"楠西區","full_name":"臺南市楠西區","state_name":null,"city_name":"臺南市"},{"zipcode":"716","name":"南化區","full_name":"臺南市南化區","state_name":null,"city_name":"臺南市"},{"zipcode":"717","name":"仁德區","full_name":"臺南市仁德區","state_name":null,"city_name":"臺南市"},{"zipcode":"718","name":"關廟區","full_name":"臺南市關廟區","state_name":null,"city_name":"臺南市"},{"zipcode":"719","name":"龍崎區","full_name":"臺南市龍崎區","state_name":null,"city_name":"臺南市"},{"zipcode":"720","name":"官田區","full_name":"臺南市官田區","state_name":null,"city_name":"臺南市"},{"zipcode":"721","name":"麻豆區","full_name":"臺南市麻豆區","state_name":null,"city_name":"臺南市"},{"zipcode":"722","name":"佳里區","full_name":"臺南市佳里區","state_name":null,"city_name":"臺南市"},{"zipcode":"723","name":"西港區","full_name":"臺南市西港區","state_name":null,"city_name":"臺南市"},{"zipcode":"724","name":"七股區","full_name":"臺南市七股區","state_name":null,"city_name":"臺南市"},{"zipcode":"725","name":"將軍區","full_name":"臺南市將軍區","state_name":null,"city_name":"臺南市"},{"zipcode":"726","name":"學甲區","full_name":"臺南市學甲區","state_name":null,"city_name":"臺南市"},{"zipcode":"727","name":"北門區","full_name":"臺南市北門區","state_name":null,"city_name":"臺南市"},{"zipcode":"730","name":"新營區","full_name":"臺南市新營區","state_name":null,"city_name":"臺南市"},{"zipcode":"731","name":"後壁區","full_name":"臺南市後壁區","state_name":null,"city_name":"臺南市"},{"zipcode":"732","name":"白河區","full_name":"臺南市白河區","state_name":null,"city_name":"臺南市"},{"zipcode":"733","name":"東山區","full_name":"臺南市東山區","state_name":null,"city_name":"臺南市"},{"zipcode":"734","name":"六甲區","full_name":"臺南市六甲區","state_name":null,"city_name":"臺南市"},{"zipcode":"735","name":"下營區","full_name":"臺南市下營區","state_name":null,"city_name":"臺南市"},{"zipcode":"736","name":"柳營區","full_name":"臺南市柳營區","state_name":null,"city_name":"臺南市"},{"zipcode":"737","name":"鹽水區","full_name":"臺南市鹽水區","state_name":null,"city_name":"臺南市"},{"zipcode":"741","name":"善化區","full_name":"臺南市善化區","state_name":null,"city_name":"臺南市"},{"zipcode":"742","name":"大內區","full_name":"臺南市大內區","state_name":null,"city_name":"臺南市"},{"zipcode":"743","name":"山上區","full_name":"臺南市山上區","state_name":null,"city_name":"臺南市"},{"zipcode":"744","name":"新市區","full_name":"臺南市新市區","state_name":null,"city_name":"臺南市"},{"zipcode":"745","name":"安定區","full_name":"臺南市安定區","state_name":null,"city_name":"臺南市"}]