[{"zipcode":"400","name":"中區","full_name":"臺中市中區","state_name":null,"city_name":"臺中市"},{"zipcode":"401","name":"東區","full_name":"臺中市東區","state_name":null,"city_name":"臺中市"},{"zipcode":"402","name":"南區","full_name":"臺中市南區","state_name":null,"city_name":"臺中市"},{"zipcode":"403","name":"西區","full_name":"臺中市西區","state_name":null,"city_name":"臺中市"},{"zipcode":"404","name":"北區","full_name":"臺中市北區","state_name":null,"city_name":"臺中市"},{"zipcode":"406","name":"北屯區","full_name":"臺中市北屯區","state_name":null,"city_name":"臺中市"},{"zipcode":"407","name":"西屯區","full_name":"臺中市西屯區","state_name":null,"city_name":"臺中市"},{"zipcode":"408","name":"南屯區","full_name":"臺中市南屯區","state_name":null,"city_name":"臺中市"},{"zipcode":"411","name":"太平區","full_name":"臺中市太平區","state_name":null,"city_name":"臺中市"},{"zipcode":"412","name":"大里區","full_name":"臺中市大里區","state_name":null,"city_name":"臺中市"},{"zipcode":"413","name":"霧峰區","full_name":"臺中市霧峰區","state_name":null,"city_name":"臺中市"},{"zipcode":"414","name":"烏日區","full_name":"臺中市烏日區","state_name":null,"city_name":"臺中市"},{"zipcode":"420","name":"豐原區","full_name":"臺中市豐原區","state_name":null,"city_name":"臺中市"},{"zipcode":"421","name":"后里區","full_name":"臺中市后里區","state_name":null,"city_name":"臺中市"},{"zipcode":"422","name":"石岡區","full_name":"臺中市石岡區","state_name":null,"city_name":"臺中市"},{"zipcode":"423","name":"東勢區","full_name":"臺中市東勢區","state_name":null,"city_name":"臺中市"},{"zipcode":"424","name":"和平區","full_name":"臺中市和平區","state_name":null,"city_name":"臺中市"},{"zipcode":"426","name":"新社區","full_name":"臺中市新社區","state_name":null,"city_name":"臺中市"},{"zipcode":"427","name":"潭子區","full_name":"臺中市潭子區","state_name":null,"city_name":"臺中市"},{"zipcode":"428","name":"大雅區","full_name":"臺中市大雅區","state_name":null,"city_name":"臺中市"},{"zipcode":"429","name":"神岡區","full_name":"臺中市神岡區","state_name":null,"city_name":"臺中市"},{"zipcode":"432","name":"大肚區","full_name":"臺中市大肚區","state_name":null,"city_name":"臺中市"},{"zipcode":"433","name":"沙鹿區","full_name":"臺中市沙鹿區","state_name":null,"city_name":"臺中市"},{"zipcode":"434","name":"龍井區","full_name":"臺中市龍井區","state_name":null,"city_name":"臺中市"},{"zipcode":"435","name":"梧棲區","full_name":"臺中市梧棲區","state_name":null,"city_name":"臺中市"},{"zipcode":"436","name":"清水區","full_name":"臺中市清水區","state_name":null,"city_name":"臺中市"},{"zipcode":"437","name":"大甲區","full_name":"臺中市大甲區","state_name":null,"city_name":"臺中市"},{"zipcode":"438","name":"外埔區","full_name":"臺中市外埔區","state_name":null,"city_name":"臺中市"},{"zipcode":"439","name":"大安區","full_name":"臺中市大安區","state_name":null,"city_name":"臺中市"}]