[{"zipcode":"602","name":"番路鄉","full_name":"嘉義縣番路鄉","state_name":null,"city_name":"嘉義縣"},{"zipcode":"603","name":"梅山鄉","full_name":"嘉義縣梅山鄉","state_name":null,"city_name":"嘉義縣"},{"zipcode":"604","name":"竹崎鄉","full_name":"嘉義縣竹崎鄉","state_name":null,"city_name":"嘉義縣"},{"zipcode":"605","name":"阿里山鄉","full_name":"嘉義縣阿里山鄉","state_name":null,"city_name":"嘉義縣"},{"zipcode":"606","name":"中埔鄉","full_name":"嘉義縣中埔鄉","state_name":null,"city_name":"嘉義縣"},{"zipcode":"607","name":"大埔鄉","full_name":"嘉義縣大埔鄉","state_name":null,"city_name":"嘉義縣"},{"zipcode":"608","name":"水上鄉","full_name":"嘉義縣水上鄉","state_name":null,"city_name":"嘉義縣"},{"zipcode":"611","name":"鹿草鄉","full_name":"嘉義縣鹿草鄉","state_name":null,"city_name":"嘉義縣"},{"zipcode":"612","name":"太保市","full_name":"嘉義縣太保市","state_name":null,"city_name":"嘉義縣"},{"zipcode":"613","name":"朴子市","full_name":"嘉義縣朴子市","state_name":null,"city_name":"嘉義縣"},{"zipcode":"614","name":"東石鄉","full_name":"嘉義縣東石鄉","state_name":null,"city_name":"嘉義縣"},{"zipcode":"615","name":"六腳鄉","full_name":"嘉義縣六腳鄉","state_name":null,"city_name":"嘉義縣"},{"zipcode":"616","name":"新港鄉","full_name":"嘉義縣新港鄉","state_name":null,"city_name":"嘉義縣"},{"zipcode":"621","name":"民雄鄉","full_name":"嘉義縣民雄鄉","state_name":null,"city_name":"嘉義縣"},{"zipcode":"622","name":"大林鎮","full_name":"嘉義縣大林鎮","state_name":null,"city_name":"嘉義縣"},{"zipcode":"623","name":"溪口鄉","full_name":"嘉義縣溪口鄉","state_name":null,"city_name":"嘉義縣"},{"zipcode":"624","name":"義竹鄉","full_name":"嘉義縣義竹鄉","state_name":null,"city_name":"嘉義縣"},{"zipcode":"625","name":"布袋鎮","full_name":"嘉義縣布袋鎮","state_name":null,"city_name":"嘉義縣"}]