[{"zipcode":"100","name":"中正區","full_name":"臺北市中正區","state_name":null,"city_name":"臺北市"},{"zipcode":"103","name":"大同區","full_name":"臺北市大同區","state_name":null,"city_name":"臺北市"},{"zipcode":"104","name":"中山區","full_name":"臺北市中山區","state_name":null,"city_name":"臺北市"},{"zipcode":"105","name":"松山區","full_name":"臺北市松山區","state_name":null,"city_name":"臺北市"},{"zipcode":"106","name":"大安區","full_name":"臺北市大安區","state_name":null,"city_name":"臺北市"},{"zipcode":"108","name":"萬華區","full_name":"臺北市萬華區","state_name":null,"city_name":"臺北市"},{"zipcode":"110","name":"信義區","full_name":"臺北市信義區","state_name":null,"city_name":"臺北市"},{"zipcode":"111","name":"士林區","full_name":"臺北市士林區","state_name":null,"city_name":"臺北市"},{"zipcode":"112","name":"北投區","full_name":"臺北市北投區","state_name":null,"city_name":"臺北市"},{"zipcode":"114","name":"內湖區","full_name":"臺北市內湖區","state_name":null,"city_name":"臺北市"},{"zipcode":"115","name":"南港區","full_name":"臺北市南港區","state_name":null,"city_name":"臺北市"},{"zipcode":"116","name":"文山區","full_name":"臺北市文山區","state_name":null,"city_name":"臺北市"}]