[{"zipcode":"970","name":"花蓮市","full_name":"花蓮縣花蓮市","state_name":null,"city_name":"花蓮縣"},{"zipcode":"971","name":"新城鄉","full_name":"花蓮縣新城鄉","state_name":null,"city_name":"花蓮縣"},{"zipcode":"972","name":"秀林鄉","full_name":"花蓮縣秀林鄉","state_name":null,"city_name":"花蓮縣"},{"zipcode":"973","name":"吉安鄉","full_name":"花蓮縣吉安鄉","state_name":null,"city_name":"花蓮縣"},{"zipcode":"974","name":"壽豐鄉","full_name":"花蓮縣壽豐鄉","state_name":null,"city_name":"花蓮縣"},{"zipcode":"975","name":"鳳林鎮","full_name":"花蓮縣鳳林鎮","state_name":null,"city_name":"花蓮縣"},{"zipcode":"976","name":"光復鄉","full_name":"花蓮縣光復鄉","state_name":null,"city_name":"花蓮縣"},{"zipcode":"977","name":"豐濱鄉","full_name":"花蓮縣豐濱鄉","state_name":null,"city_name":"花蓮縣"},{"zipcode":"978","name":"瑞穗鄉","full_name":"花蓮縣瑞穗鄉","state_name":null,"city_name":"花蓮縣"},{"zipcode":"979","name":"萬榮鄉","full_name":"花蓮縣萬榮鄉","state_name":null,"city_name":"花蓮縣"},{"zipcode":"981","name":"玉里鎮","full_name":"花蓮縣玉里鎮","state_name":null,"city_name":"花蓮縣"},{"zipcode":"982","name":"卓溪鄉","full_name":"花蓮縣卓溪鄉","state_name":null,"city_name":"花蓮縣"},{"zipcode":"983","name":"富里鄉","full_name":"花蓮縣富里鄉","state_name":null,"city_name":"花蓮縣"}]