[{"zipcode":"350","name":"竹南鎮","full_name":"苗栗縣竹南鎮","state_name":null,"city_name":"苗栗縣"},{"zipcode":"351","name":"頭份市","full_name":"苗栗縣頭份市","state_name":null,"city_name":"苗栗縣"},{"zipcode":"352","name":"三灣鄉","full_name":"苗栗縣三灣鄉","state_name":null,"city_name":"苗栗縣"},{"zipcode":"353","name":"南庄鄉","full_name":"苗栗縣南庄鄉","state_name":null,"city_name":"苗栗縣"},{"zipcode":"354","name":"獅潭鄉","full_name":"苗栗縣獅潭鄉","state_name":null,"city_name":"苗栗縣"},{"zipcode":"356","name":"後龍鎮","full_name":"苗栗縣後龍鎮","state_name":null,"city_name":"苗栗縣"},{"zipcode":"357","name":"通霄鎮","full_name":"苗栗縣通霄鎮","state_name":null,"city_name":"苗栗縣"},{"zipcode":"358","name":"苑裡鎮","full_name":"苗栗縣苑裡鎮","state_name":null,"city_name":"苗栗縣"},{"zipcode":"360","name":"苗栗市","full_name":"苗栗縣苗栗市","state_name":null,"city_name":"苗栗縣"},{"zipcode":"361","name":"造橋鄉","full_name":"苗栗縣造橋鄉","state_name":null,"city_name":"苗栗縣"},{"zipcode":"362","name":"頭屋鄉","full_name":"苗栗縣頭屋鄉","state_name":null,"city_name":"苗栗縣"},{"zipcode":"363","name":"公館鄉","full_name":"苗栗縣公館鄉","state_name":null,"city_name":"苗栗縣"},{"zipcode":"364","name":"大湖鄉","full_name":"苗栗縣大湖鄉","state_name":null,"city_name":"苗栗縣"},{"zipcode":"365","name":"泰安鄉","full_name":"苗栗縣泰安鄉","state_name":null,"city_name":"苗栗縣"},{"zipcode":"366","name":"銅鑼鄉","full_name":"苗栗縣銅鑼鄉","state_name":null,"city_name":"苗栗縣"},{"zipcode":"367","name":"三義鄉","full_name":"苗栗縣三義鄉","state_name":null,"city_name":"苗栗縣"},{"zipcode":"368","name":"西湖鄉","full_name":"苗栗縣西湖鄉","state_name":null,"city_name":"苗栗縣"},{"zipcode":"369","name":"卓蘭鎮","full_name":"苗栗縣卓蘭鎮","state_name":null,"city_name":"苗栗縣"}]