[{"zipcode":"630","name":"斗南鎮","full_name":"雲林縣斗南鎮","state_name":null,"city_name":"雲林縣"},{"zipcode":"631","name":"大埤鄉","full_name":"雲林縣大埤鄉","state_name":null,"city_name":"雲林縣"},{"zipcode":"632","name":"虎尾鎮","full_name":"雲林縣虎尾鎮","state_name":null,"city_name":"雲林縣"},{"zipcode":"633","name":"土庫鎮","full_name":"雲林縣土庫鎮","state_name":null,"city_name":"雲林縣"},{"zipcode":"634","name":"褒忠鄉","full_name":"雲林縣褒忠鄉","state_name":null,"city_name":"雲林縣"},{"zipcode":"635","name":"東勢鄉","full_name":"雲林縣東勢鄉","state_name":null,"city_name":"雲林縣"},{"zipcode":"636","name":"臺西鄉","full_name":"雲林縣臺西鄉","state_name":null,"city_name":"雲林縣"},{"zipcode":"637","name":"崙背鄉","full_name":"雲林縣崙背鄉","state_name":null,"city_name":"雲林縣"},{"zipcode":"638","name":"麥寮鄉","full_name":"雲林縣麥寮鄉","state_name":null,"city_name":"雲林縣"},{"zipcode":"640","name":"斗六市","full_name":"雲林縣斗六市","state_name":null,"city_name":"雲林縣"},{"zipcode":"643","name":"林內鄉","full_name":"雲林縣林內鄉","state_name":null,"city_name":"雲林縣"},{"zipcode":"646","name":"古坑鄉","full_name":"雲林縣古坑鄉","state_name":null,"city_name":"雲林縣"},{"zipcode":"647","name":"莿桐鄉","full_name":"雲林縣莿桐鄉","state_name":null,"city_name":"雲林縣"},{"zipcode":"648","name":"西螺鎮","full_name":"雲林縣西螺鎮","state_name":null,"city_name":"雲林縣"},{"zipcode":"649","name":"二崙鄉","full_name":"雲林縣二崙鄉","state_name":null,"city_name":"雲林縣"},{"zipcode":"651","name":"北港鎮","full_name":"雲林縣北港鎮","state_name":null,"city_name":"雲林縣"},{"zipcode":"652","name":"水林鄉","full_name":"雲林縣水林鄉","state_name":null,"city_name":"雲林縣"},{"zipcode":"653","name":"口湖鄉","full_name":"雲林縣口湖鄉","state_name":null,"city_name":"雲林縣"},{"zipcode":"654","name":"四湖鄉","full_name":"雲林縣四湖鄉","state_name":null,"city_name":"雲林縣"},{"zipcode":"655","name":"元長鄉","full_name":"雲林縣元長鄉","state_name":null,"city_name":"雲林縣"}]