[{"zipcode":"100","name":"中正區","full_name":"臺北市中正區","state_name":null,"city_name":"臺北市"},{"zipcode":"103","name":"大同區","full_name":"臺北市大同區","state_name":null,"city_name":"臺北市"},{"zipcode":"104","name":"中山區","full_name":"臺北市中山區","state_name":null,"city_name":"臺北市"},{"zipcode":"105","name":"松山區","full_name":"臺北市松山區","state_name":null,"city_name":"臺北市"},{"zipcode":"106","name":"大安區","full_name":"臺北市大安區","state_name":null,"city_name":"臺北市"},{"zipcode":"108","name":"萬華區","full_name":"臺北市萬華區","state_name":null,"city_name":"臺北市"},{"zipcode":"110","name":"信義區","full_name":"臺北市信義區","state_name":null,"city_name":"臺北市"},{"zipcode":"111","name":"士林區","full_name":"臺北市士林區","state_name":null,"city_name":"臺北市"},{"zipcode":"112","name":"北投區","full_name":"臺北市北投區","state_name":null,"city_name":"臺北市"},{"zipcode":"114","name":"內湖區","full_name":"臺北市內湖區","state_name":null,"city_name":"臺北市"},{"zipcode":"115","name":"南港區","full_name":"臺北市南港區","state_name":null,"city_name":"臺北市"},{"zipcode":"116","name":"文山區","full_name":"臺北市文山區","state_name":null,"city_name":"臺北市"},{"zipcode":"200","name":"仁愛區","full_name":"基隆市仁愛區","state_name":null,"city_name":"基隆市"},{"zipcode":"201","name":"信義區","full_name":"基隆市信義區","state_name":null,"city_name":"基隆市"},{"zipcode":"202","name":"中正區","full_name":"基隆市中正區","state_name":null,"city_name":"基隆市"},{"zipcode":"203","name":"中山區","full_name":"基隆市中山區","state_name":null,"city_name":"基隆市"},{"zipcode":"204","name":"安樂區","full_name":"基隆市安樂區","state_name":null,"city_name":"基隆市"},{"zipcode":"205","name":"暖暖區","full_name":"基隆市暖暖區","state_name":null,"city_name":"基隆市"},{"zipcode":"206","name":"七堵區","full_name":"基隆市七堵區","state_name":null,"city_name":"基隆市"},{"zipcode":"207","name":"萬里區","full_name":"新北市萬里區","state_name":null,"city_name":"新北市"},{"zipcode":"208","name":"金山區","full_name":"新北市金山區","state_name":null,"city_name":"新北市"},{"zipcode":"209","name":"南竿鄉","full_name":"連江縣南竿鄉","state_name":null,"city_name":"連江縣"},{"zipcode":"210","name":"北竿鄉","full_name":"連江縣北竿鄉","state_name":null,"city_name":"連江縣"},{"zipcode":"211","name":"莒光鄉","full_name":"連江縣莒光鄉","state_name":null,"city_name":"連江縣"},{"zipcode":"212","name":"東引鄉","full_name":"連江縣東引鄉","state_name":null,"city_name":"連江縣"},{"zipcode":"220","name":"板橋區","full_name":"新北市板橋區","state_name":null,"city_name":"新北市"},{"zipcode":"221","name":"汐止區","full_name":"新北市汐止區","state_name":null,"city_name":"新北市"},{"zipcode":"222","name":"深坑區","full_name":"新北市深坑區","state_name":null,"city_name":"新北市"},{"zipcode":"223","name":"石碇區","full_name":"新北市石碇區","state_name":null,"city_name":"新北市"},{"zipcode":"224","name":"瑞芳區","full_name":"新北市瑞芳區","state_name":null,"city_name":"新北市"},{"zipcode":"226","name":"平溪區","full_name":"新北市平溪區","state_name":null,"city_name":"新北市"},{"zipcode":"227","name":"雙溪區","full_name":"新北市雙溪區","state_name":null,"city_name":"新北市"},{"zipcode":"228","name":"貢寮區","full_name":"新北市貢寮區","state_name":null,"city_name":"新北市"},{"zipcode":"231","name":"新店區","full_name":"新北市新店區","state_name":null,"city_name":"新北市"},{"zipcode":"232","name":"坪林區","full_name":"新北市坪林區","state_name":null,"city_name":"新北市"},{"zipcode":"233","name":"烏來區","full_name":"新北市烏來區","state_name":null,"city_name":"新北市"},{"zipcode":"234","name":"永和區","full_name":"新北市永和區","state_name":null,"city_name":"新北市"},{"zipcode":"235","name":"中和區","full_name":"新北市中和區","state_name":null,"city_name":"新北市"},{"zipcode":"236","name":"土城區","full_name":"新北市土城區","state_name":null,"city_name":"新北市"},{"zipcode":"237","name":"三峽區","full_name":"新北市三峽區","state_name":null,"city_name":"新北市"},{"zipcode":"238","name":"樹林區","full_name":"新北市樹林區","state_name":null,"city_name":"新北市"},{"zipcode":"239","name":"鶯歌區","full_name":"新北市鶯歌區","state_name":null,"city_name":"新北市"},{"zipcode":"241","name":"三重區","full_name":"新北市三重區","state_name":null,"city_name":"新北市"},{"zipcode":"242","name":"新莊區","full_name":"新北市新莊區","state_name":null,"city_name":"新北市"},{"zipcode":"243","name":"泰山區","full_name":"新北市泰山區","state_name":null,"city_name":"新北市"},{"zipcode":"244","name":"林口區","full_name":"新北市林口區","state_name":null,"city_name":"新北市"},{"zipcode":"247","name":"蘆洲區","full_name":"新北市蘆洲區","state_name":null,"city_name":"新北市"},{"zipcode":"248","name":"五股區","full_name":"新北市五股區","state_name":null,"city_name":"新北市"},{"zipcode":"249","name":"八里區","full_name":"新北市八里區","state_name":null,"city_name":"新北市"},{"zipcode":"251","name":"淡水區","full_name":"新北市淡水區","state_name":null,"city_name":"新北市"},{"zipcode":"252","name":"三芝區","full_name":"新北市三芝區","state_name":null,"city_name":"新北市"},{"zipcode":"253","name":"石門區","full_name":"新北市石門區","state_name":null,"city_name":"新北市"},{"zipcode":"260","name":"宜蘭市","full_name":"宜蘭縣宜蘭市","state_name":null,"city_name":"宜蘭縣"},{"zipcode":"261","name":"頭城鎮","full_name":"宜蘭縣頭城鎮","state_name":null,"city_name":"宜蘭縣"},{"zipcode":"262","name":"礁溪鄉","full_name":"宜蘭縣礁溪鄉","state_name":null,"city_name":"宜蘭縣"},{"zipcode":"263","name":"壯圍鄉","full_name":"宜蘭縣壯圍鄉","state_name":null,"city_name":"宜蘭縣"},{"zipcode":"264","name":"員山鄉","full_name":"宜蘭縣員山鄉","state_name":null,"city_name":"宜蘭縣"},{"zipcode":"265","name":"羅東鎮","full_name":"宜蘭縣羅東鎮","state_name":null,"city_name":"宜蘭縣"},{"zipcode":"266","name":"三星鄉","full_name":"宜蘭縣三星鄉","state_name":null,"city_name":"宜蘭縣"},{"zipcode":"267","name":"大同鄉","full_name":"宜蘭縣大同鄉","state_name":null,"city_name":"宜蘭縣"},{"zipcode":"268","name":"五結鄉","full_name":"宜蘭縣五結鄉","state_name":null,"city_name":"宜蘭縣"},{"zipcode":"269","name":"冬山鄉","full_name":"宜蘭縣冬山鄉","state_name":null,"city_name":"宜蘭縣"},{"zipcode":"270","name":"蘇澳鎮","full_name":"宜蘭縣蘇澳鎮","state_name":null,"city_name":"宜蘭縣"},{"zipcode":"272","name":"南澳鄉","full_name":"宜蘭縣南澳鄉","state_name":null,"city_name":"宜蘭縣"},{"zipcode":"300","name":"東區","full_name":"新竹市東區","state_name":null,"city_name":"新竹市"},{"zipcode":"300","name":"北區","full_name":"新竹市北區","state_name":null,"city_name":"新竹市"},{"zipcode":"300","name":"香山區","full_name":"新竹市香山區","state_name":null,"city_name":"新竹市"},{"zipcode":"302","name":"竹北市","full_name":"新竹縣竹北市","state_name":null,"city_name":"新竹縣"},{"zipcode":"303","name":"湖口鄉","full_name":"新竹縣湖口鄉","state_name":null,"city_name":"新竹縣"},{"zipcode":"304","name":"新豐鄉","full_name":"新竹縣新豐鄉","state_name":null,"city_name":"新竹縣"},{"zipcode":"305","name":"新埔鎮","full_name":"新竹縣新埔鎮","state_name":null,"city_name":"新竹縣"},{"zipcode":"306","name":"關西鎮","full_name":"新竹縣關西鎮","state_name":null,"city_name":"新竹縣"},{"zipcode":"307","name":"芎林鄉","full_name":"新竹縣芎林鄉","state_name":null,"city_name":"新竹縣"},{"zipcode":"308","name":"寶山鄉","full_name":"新竹縣寶山鄉","state_name":null,"city_name":"新竹縣"},{"zipcode":"310","name":"竹東鎮","full_name":"新竹縣竹東鎮","state_name":null,"city_name":"新竹縣"},{"zipcode":"311","name":"五峰鄉","full_name":"新竹縣五峰鄉","state_name":null,"city_name":"新竹縣"},{"zipcode":"312","name":"橫山鄉","full_name":"新竹縣橫山鄉","state_name":null,"city_name":"新竹縣"},{"zipcode":"313","name":"尖石鄉","full_name":"新竹縣尖石鄉","state_name":null,"city_name":"新竹縣"},{"zipcode":"314","name":"北埔鄉","full_name":"新竹縣北埔鄉","state_name":null,"city_name":"新竹縣"},{"zipcode":"315","name":"峨眉鄉","full_name":"新竹縣峨眉鄉","state_name":null,"city_name":"新竹縣"},{"zipcode":"320","name":"中壢區","full_name":"桃園市中壢區","state_name":null,"city_name":"桃園市"},{"zipcode":"324","name":"平鎮區","full_name":"桃園市平鎮區","state_name":null,"city_name":"桃園市"},{"zipcode":"325","name":"龍潭區","full_name":"桃園市龍潭區","state_name":null,"city_name":"桃園市"},{"zipcode":"326","name":"楊梅區","full_name":"桃園市楊梅區","state_name":null,"city_name":"桃園市"},{"zipcode":"327","name":"新屋區","full_name":"桃園市新屋區","state_name":null,"city_name":"桃園市"},{"zipcode":"328","name":"觀音區","full_name":"桃園市觀音區","state_name":null,"city_name":"桃園市"},{"zipcode":"330","name":"桃園區","full_name":"桃園市桃園區","state_name":null,"city_name":"桃園市"},{"zipcode":"333","name":"龜山區","full_name":"桃園市龜山區","state_name":null,"city_name":"桃園市"},{"zipcode":"334","name":"八德區","full_name":"桃園市八德區","state_name":null,"city_name":"桃園市"},{"zipcode":"335","name":"大溪區","full_name":"桃園市大溪區","state_name":null,"city_name":"桃園市"},{"zipcode":"336","name":"復興區","full_name":"桃園市復興區","state_name":null,"city_name":"桃園市"},{"zipcode":"337","name":"大園區","full_name":"桃園市大園區","state_name":null,"city_name":"桃園市"},{"zipcode":"338","name":"蘆竹區","full_name":"桃園市蘆竹區","state_name":null,"city_name":"桃園市"},{"zipcode":"350","name":"竹南鎮","full_name":"苗栗縣竹南鎮","state_name":null,"city_name":"苗栗縣"},{"zipcode":"351","name":"頭份市","full_name":"苗栗縣頭份市","state_name":null,"city_name":"苗栗縣"},{"zipcode":"352","name":"三灣鄉","full_name":"苗栗縣三灣鄉","state_name":null,"city_name":"苗栗縣"},{"zipcode":"353","name":"南庄鄉","full_name":"苗栗縣南庄鄉","state_name":null,"city_name":"苗栗縣"},{"zipcode":"354","name":"獅潭鄉","full_name":"苗栗縣獅潭鄉","state_name":null,"city_name":"苗栗縣"},{"zipcode":"356","name":"後龍鎮","full_name":"苗栗縣後龍鎮","state_name":null,"city_name":"苗栗縣"},{"zipcode":"357","name":"通霄鎮","full_name":"苗栗縣通霄鎮","state_name":null,"city_name":"苗栗縣"},{"zipcode":"358","name":"苑裡鎮","full_name":"苗栗縣苑裡鎮","state_name":null,"city_name":"苗栗縣"},{"zipcode":"360","name":"苗栗市","full_name":"苗栗縣苗栗市","state_name":null,"city_name":"苗栗縣"},{"zipcode":"361","name":"造橋鄉","full_name":"苗栗縣造橋鄉","state_name":null,"city_name":"苗栗縣"},{"zipcode":"362","name":"頭屋鄉","full_name":"苗栗縣頭屋鄉","state_name":null,"city_name":"苗栗縣"},{"zipcode":"363","name":"公館鄉","full_name":"苗栗縣公館鄉","state_name":null,"city_name":"苗栗縣"},{"zipcode":"364","name":"大湖鄉","full_name":"苗栗縣大湖鄉","state_name":null,"city_name":"苗栗縣"},{"zipcode":"365","name":"泰安鄉","full_name":"苗栗縣泰安鄉","state_name":null,"city_name":"苗栗縣"},{"zipcode":"366","name":"銅鑼鄉","full_name":"苗栗縣銅鑼鄉","state_name":null,"city_name":"苗栗縣"},{"zipcode":"367","name":"三義鄉","full_name":"苗栗縣三義鄉","state_name":null,"city_name":"苗栗縣"},{"zipcode":"368","name":"西湖鄉","full_name":"苗栗縣西湖鄉","state_name":null,"city_name":"苗栗縣"},{"zipcode":"369","name":"卓蘭鎮","full_name":"苗栗縣卓蘭鎮","state_name":null,"city_name":"苗栗縣"},{"zipcode":"400","name":"中區","full_name":"臺中市中區","state_name":null,"city_name":"臺中市"},{"zipcode":"401","name":"東區","full_name":"臺中市東區","state_name":null,"city_name":"臺中市"},{"zipcode":"402","name":"南區","full_name":"臺中市南區","state_name":null,"city_name":"臺中市"},{"zipcode":"403","name":"西區","full_name":"臺中市西區","state_name":null,"city_name":"臺中市"},{"zipcode":"404","name":"北區","full_name":"臺中市北區","state_name":null,"city_name":"臺中市"},{"zipcode":"406","name":"北屯區","full_name":"臺中市北屯區","state_name":null,"city_name":"臺中市"},{"zipcode":"407","name":"西屯區","full_name":"臺中市西屯區","state_name":null,"city_name":"臺中市"},{"zipcode":"408","name":"南屯區","full_name":"臺中市南屯區","state_name":null,"city_name":"臺中市"},{"zipcode":"411","name":"太平區","full_name":"臺中市太平區","state_name":null,"city_name":"臺中市"},{"zipcode":"412","name":"大里區","full_name":"臺中市大里區","state_name":null,"city_name":"臺中市"},{"zipcode":"413","name":"霧峰區","full_name":"臺中市霧峰區","state_name":null,"city_name":"臺中市"},{"zipcode":"414","name":"烏日區","full_name":"臺中市烏日區","state_name":null,"city_name":"臺中市"},{"zipcode":"420","name":"豐原區","full_name":"臺中市豐原區","state_name":null,"city_name":"臺中市"},{"zipcode":"421","name":"后里區","full_name":"臺中市后里區","state_name":null,"city_name":"臺中市"},{"zipcode":"422","name":"石岡區","full_name":"臺中市石岡區","state_name":null,"city_name":"臺中市"},{"zipcode":"423","name":"東勢區","full_name":"臺中市東勢區","state_name":null,"city_name":"臺中市"},{"zipcode":"424","name":"和平區","full_name":"臺中市和平區","state_name":null,"city_name":"臺中市"},{"zipcode":"426","name":"新社區","full_name":"臺中市新社區","state_name":null,"city_name":"臺中市"},{"zipcode":"427","name":"潭子區","full_name":"臺中市潭子區","state_name":null,"city_name":"臺中市"},{"zipcode":"428","name":"大雅區","full_name":"臺中市大雅區","state_name":null,"city_name":"臺中市"},{"zipcode":"429","name":"神岡區","full_name":"臺中市神岡區","state_name":null,"city_name":"臺中市"},{"zipcode":"432","name":"大肚區","full_name":"臺中市大肚區","state_name":null,"city_name":"臺中市"},{"zipcode":"433","name":"沙鹿區","full_name":"臺中市沙鹿區","state_name":null,"city_name":"臺中市"},{"zipcode":"434","name":"龍井區","full_name":"臺中市龍井區","state_name":null,"city_name":"臺中市"},{"zipcode":"435","name":"梧棲區","full_name":"臺中市梧棲區","state_name":null,"city_name":"臺中市"},{"zipcode":"436","name":"清水區","full_name":"臺中市清水區","state_name":null,"city_name":"臺中市"},{"zipcode":"437","name":"大甲區","full_name":"臺中市大甲區","state_name":null,"city_name":"臺中市"},{"zipcode":"438","name":"外埔區","full_name":"臺中市外埔區","state_name":null,"city_name":"臺中市"},{"zipcode":"439","name":"大安區","full_name":"臺中市大安區","state_name":null,"city_name":"臺中市"},{"zipcode":"500","name":"彰化市","full_name":"彰化縣彰化市","state_name":null,"city_name":"彰化縣"},{"zipcode":"502","name":"芬園鄉","full_name":"彰化縣芬園鄉","state_name":null,"city_name":"彰化縣"},{"zipcode":"503","name":"花壇鄉","full_name":"彰化縣花壇鄉","state_name":null,"city_name":"彰化縣"},{"zipcode":"504","name":"秀水鄉","full_name":"彰化縣秀水鄉","state_name":null,"city_name":"彰化縣"},{"zipcode":"505","name":"鹿港鎮","full_name":"彰化縣鹿港鎮","state_name":null,"city_name":"彰化縣"},{"zipcode":"506","name":"福興鄉","full_name":"彰化縣福興鄉","state_name":null,"city_name":"彰化縣"},{"zipcode":"507","name":"線西鄉","full_name":"彰化縣線西鄉","state_name":null,"city_name":"彰化縣"},{"zipcode":"508","name":"和美鎮","full_name":"彰化縣和美鎮","state_name":null,"city_name":"彰化縣"},{"zipcode":"509","name":"伸港鄉","full_name":"彰化縣伸港鄉","state_name":null,"city_name":"彰化縣"},{"zipcode":"510","name":"員林市","full_name":"彰化縣員林市","state_name":null,"city_name":"彰化縣"},{"zipcode":"511","name":"社頭鄉","full_name":"彰化縣社頭鄉","state_name":null,"city_name":"彰化縣"},{"zipcode":"512","name":"永靖鄉","full_name":"彰化縣永靖鄉","state_name":null,"city_name":"彰化縣"},{"zipcode":"513","name":"埔心鄉","full_name":"彰化縣埔心鄉","state_name":null,"city_name":"彰化縣"},{"zipcode":"514","name":"溪湖鎮","full_name":"彰化縣溪湖鎮","state_name":null,"city_name":"彰化縣"},{"zipcode":"515","name":"大村鄉","full_name":"彰化縣大村鄉","state_name":null,"city_name":"彰化縣"},{"zipcode":"516","name":"埔鹽鄉","full_name":"彰化縣埔鹽鄉","state_name":null,"city_name":"彰化縣"},{"zipcode":"520","name":"田中鎮","full_name":"彰化縣田中鎮","state_name":null,"city_name":"彰化縣"},{"zipcode":"521","name":"北斗鎮","full_name":"彰化縣北斗鎮","state_name":null,"city_name":"彰化縣"},{"zipcode":"522","name":"田尾鄉","full_name":"彰化縣田尾鄉","state_name":null,"city_name":"彰化縣"},{"zipcode":"523","name":"埤頭鄉","full_name":"彰化縣埤頭鄉","state_name":null,"city_name":"彰化縣"},{"zipcode":"524","name":"溪州鄉","full_name":"彰化縣溪州鄉","state_name":null,"city_name":"彰化縣"},{"zipcode":"525","name":"竹塘鄉","full_name":"彰化縣竹塘鄉","state_name":null,"city_name":"彰化縣"},{"zipcode":"526","name":"二林鎮","full_name":"彰化縣二林鎮","state_name":null,"city_name":"彰化縣"},{"zipcode":"527","name":"大城鄉","full_name":"彰化縣大城鄉","state_name":null,"city_name":"彰化縣"},{"zipcode":"528","name":"芳苑鄉","full_name":"彰化縣芳苑鄉","state_name":null,"city_name":"彰化縣"},{"zipcode":"530","name":"二水鄉","full_name":"彰化縣二水鄉","state_name":null,"city_name":"彰化縣"},{"zipcode":"540","name":"南投市","full_name":"南投縣南投市","state_name":null,"city_name":"南投縣"},{"zipcode":"541","name":"中寮鄉","full_name":"南投縣中寮鄉","state_name":null,"city_name":"南投縣"},{"zipcode":"542","name":"草屯鎮","full_name":"南投縣草屯鎮","state_name":null,"city_name":"南投縣"},{"zipcode":"544","name":"國姓鄉","full_name":"南投縣國姓鄉","state_name":null,"city_name":"南投縣"},{"zipcode":"545","name":"埔里鎮","full_name":"南投縣埔里鎮","state_name":null,"city_name":"南投縣"},{"zipcode":"546","name":"仁愛鄉","full_name":"南投縣仁愛鄉","state_name":null,"city_name":"南投縣"},{"zipcode":"551","name":"名間鄉","full_name":"南投縣名間鄉","state_name":null,"city_name":"南投縣"},{"zipcode":"552","name":"集集鎮","full_name":"南投縣集集鎮","state_name":null,"city_name":"南投縣"},{"zipcode":"553","name":"水里鄉","full_name":"南投縣水里鄉","state_name":null,"city_name":"南投縣"},{"zipcode":"555","name":"魚池鄉","full_name":"南投縣魚池鄉","state_name":null,"city_name":"南投縣"},{"zipcode":"556","name":"信義鄉","full_name":"南投縣信義鄉","state_name":null,"city_name":"南投縣"},{"zipcode":"557","name":"竹山鎮","full_name":"南投縣竹山鎮","state_name":null,"city_name":"南投縣"},{"zipcode":"558","name":"鹿谷鄉","full_name":"南投縣鹿谷鄉","state_name":null,"city_name":"南投縣"},{"zipcode":"600","name":"西區","full_name":"嘉義市西區","state_name":null,"city_name":"嘉義市"},{"zipcode":"600","name":"東區","full_name":"嘉義市東區","state_name":null,"city_name":"嘉義市"},{"zipcode":"602","name":"番路鄉","full_name":"嘉義縣番路鄉","state_name":null,"city_name":"嘉義縣"},{"zipcode":"603","name":"梅山鄉","full_name":"嘉義縣梅山鄉","state_name":null,"city_name":"嘉義縣"},{"zipcode":"604","name":"竹崎鄉","full_name":"嘉義縣竹崎鄉","state_name":null,"city_name":"嘉義縣"},{"zipcode":"605","name":"阿里山鄉","full_name":"嘉義縣阿里山鄉","state_name":null,"city_name":"嘉義縣"},{"zipcode":"606","name":"中埔鄉","full_name":"嘉義縣中埔鄉","state_name":null,"city_name":"嘉義縣"},{"zipcode":"607","name":"大埔鄉","full_name":"嘉義縣大埔鄉","state_name":null,"city_name":"嘉義縣"},{"zipcode":"608","name":"水上鄉","full_name":"嘉義縣水上鄉","state_name":null,"city_name":"嘉義縣"},{"zipcode":"611","name":"鹿草鄉","full_name":"嘉義縣鹿草鄉","state_name":null,"city_name":"嘉義縣"},{"zipcode":"612","name":"太保市","full_name":"嘉義縣太保市","state_name":null,"city_name":"嘉義縣"},{"zipcode":"613","name":"朴子市","full_name":"嘉義縣朴子市","state_name":null,"city_name":"嘉義縣"},{"zipcode":"614","name":"東石鄉","full_name":"嘉義縣東石鄉","state_name":null,"city_name":"嘉義縣"},{"zipcode":"615","name":"六腳鄉","full_name":"嘉義縣六腳鄉","state_name":null,"city_name":"嘉義縣"},{"zipcode":"616","name":"新港鄉","full_name":"嘉義縣新港鄉","state_name":null,"city_name":"嘉義縣"},{"zipcode":"621","name":"民雄鄉","full_name":"嘉義縣民雄鄉","state_name":null,"city_name":"嘉義縣"},{"zipcode":"622","name":"大林鎮","full_name":"嘉義縣大林鎮","state_name":null,"city_name":"嘉義縣"},{"zipcode":"623","name":"溪口鄉","full_name":"嘉義縣溪口鄉","state_name":null,"city_name":"嘉義縣"},{"zipcode":"624","name":"義竹鄉","full_name":"嘉義縣義竹鄉","state_name":null,"city_name":"嘉義縣"},{"zipcode":"625","name":"布袋鎮","full_name":"嘉義縣布袋鎮","state_name":null,"city_name":"嘉義縣"},{"zipcode":"630","name":"斗南鎮","full_name":"雲林縣斗南鎮","state_name":null,"city_name":"雲林縣"},{"zipcode":"631","name":"大埤鄉","full_name":"雲林縣大埤鄉","state_name":null,"city_name":"雲林縣"},{"zipcode":"632","name":"虎尾鎮","full_name":"雲林縣虎尾鎮","state_name":null,"city_name":"雲林縣"},{"zipcode":"633","name":"土庫鎮","full_name":"雲林縣土庫鎮","state_name":null,"city_name":"雲林縣"},{"zipcode":"634","name":"褒忠鄉","full_name":"雲林縣褒忠鄉","state_name":null,"city_name":"雲林縣"},{"zipcode":"635","name":"東勢鄉","full_name":"雲林縣東勢鄉","state_name":null,"city_name":"雲林縣"},{"zipcode":"636","name":"臺西鄉","full_name":"雲林縣臺西鄉","state_name":null,"city_name":"雲林縣"},{"zipcode":"637","name":"崙背鄉","full_name":"雲林縣崙背鄉","state_name":null,"city_name":"雲林縣"},{"zipcode":"638","name":"麥寮鄉","full_name":"雲林縣麥寮鄉","state_name":null,"city_name":"雲林縣"},{"zipcode":"640","name":"斗六市","full_name":"雲林縣斗六市","state_name":null,"city_name":"雲林縣"},{"zipcode":"643","name":"林內鄉","full_name":"雲林縣林內鄉","state_name":null,"city_name":"雲林縣"},{"zipcode":"646","name":"古坑鄉","full_name":"雲林縣古坑鄉","state_name":null,"city_name":"雲林縣"},{"zipcode":"647","name":"莿桐鄉","full_name":"雲林縣莿桐鄉","state_name":null,"city_name":"雲林縣"},{"zipcode":"648","name":"西螺鎮","full_name":"雲林縣西螺鎮","state_name":null,"city_name":"雲林縣"},{"zipcode":"649","name":"二崙鄉","full_name":"雲林縣二崙鄉","state_name":null,"city_name":"雲林縣"},{"zipcode":"651","name":"北港鎮","full_name":"雲林縣北港鎮","state_name":null,"city_name":"雲林縣"},{"zipcode":"652","name":"水林鄉","full_name":"雲林縣水林鄉","state_name":null,"city_name":"雲林縣"},{"zipcode":"653","name":"口湖鄉","full_name":"雲林縣口湖鄉","state_name":null,"city_name":"雲林縣"},{"zipcode":"654","name":"四湖鄉","full_name":"雲林縣四湖鄉","state_name":null,"city_name":"雲林縣"},{"zipcode":"655","name":"元長鄉","full_name":"雲林縣元長鄉","state_name":null,"city_name":"雲林縣"},{"zipcode":"700","name":"中西區","full_name":"臺南市中西區","state_name":null,"city_name":"臺南市"},{"zipcode":"701","name":"東區","full_name":"臺南市東區","state_name":null,"city_name":"臺南市"},{"zipcode":"702","name":"南區","full_name":"臺南市南區","state_name":null,"city_name":"臺南市"},{"zipcode":"704","name":"北區","full_name":"臺南市北區","state_name":null,"city_name":"臺南市"},{"zipcode":"708","name":"安平區","full_name":"臺南市安平區","state_name":null,"city_name":"臺南市"},{"zipcode":"709","name":"安南區","full_name":"臺南市安南區","state_name":null,"city_name":"臺南市"},{"zipcode":"710","name":"永康區","full_name":"臺南市永康區","state_name":null,"city_name":"臺南市"},{"zipcode":"711","name":"歸仁區","full_name":"臺南市歸仁區","state_name":null,"city_name":"臺南市"},{"zipcode":"712","name":"新化區","full_name":"臺南市新化區","state_name":null,"city_name":"臺南市"},{"zipcode":"713","name":"左鎮區","full_name":"臺南市左鎮區","state_name":null,"city_name":"臺南市"},{"zipcode":"714","name":"玉井區","full_name":"臺南市玉井區","state_name":null,"city_name":"臺南市"},{"zipcode":"715","name":"楠西區","full_name":"臺南市楠西區","state_name":null,"city_name":"臺南市"},{"zipcode":"716","name":"南化區","full_name":"臺南市南化區","state_name":null,"city_name":"臺南市"},{"zipcode":"717","name":"仁德區","full_name":"臺南市仁德區","state_name":null,"city_name":"臺南市"},{"zipcode":"718","name":"關廟區","full_name":"臺南市關廟區","state_name":null,"city_name":"臺南市"},{"zipcode":"719","name":"龍崎區","full_name":"臺南市龍崎區","state_name":null,"city_name":"臺南市"},{"zipcode":"720","name":"官田區","full_name":"臺南市官田區","state_name":null,"city_name":"臺南市"},{"zipcode":"721","name":"麻豆區","full_name":"臺南市麻豆區","state_name":null,"city_name":"臺南市"},{"zipcode":"722","name":"佳里區","full_name":"臺南市佳里區","state_name":null,"city_name":"臺南市"},{"zipcode":"723","name":"西港區","full_name":"臺南市西港區","state_name":null,"city_name":"臺南市"},{"zipcode":"724","name":"七股區","full_name":"臺南市七股區","state_name":null,"city_name":"臺南市"},{"zipcode":"725","name":"將軍區","full_name":"臺南市將軍區","state_name":null,"city_name":"臺南市"},{"zipcode":"726","name":"學甲區","full_name":"臺南市學甲區","state_name":null,"city_name":"臺南市"},{"zipcode":"727","name":"北門區","full_name":"臺南市北門區","state_name":null,"city_name":"臺南市"},{"zipcode":"730","name":"新營區","full_name":"臺南市新營區","state_name":null,"city_name":"臺南市"},{"zipcode":"731","name":"後壁區","full_name":"臺南市後壁區","state_name":null,"city_name":"臺南市"},{"zipcode":"732","name":"白河區","full_name":"臺南市白河區","state_name":null,"city_name":"臺南市"},{"zipcode":"733","name":"東山區","full_name":"臺南市東山區","state_name":null,"city_name":"臺南市"},{"zipcode":"734","name":"六甲區","full_name":"臺南市六甲區","state_name":null,"city_name":"臺南市"},{"zipcode":"735","name":"下營區","full_name":"臺南市下營區","state_name":null,"city_name":"臺南市"},{"zipcode":"736","name":"柳營區","full_name":"臺南市柳營區","state_name":null,"city_name":"臺南市"},{"zipcode":"737","name":"鹽水區","full_name":"臺南市鹽水區","state_name":null,"city_name":"臺南市"},{"zipcode":"741","name":"善化區","full_name":"臺南市善化區","state_name":null,"city_name":"臺南市"},{"zipcode":"742","name":"大內區","full_name":"臺南市大內區","state_name":null,"city_name":"臺南市"},{"zipcode":"743","name":"山上區","full_name":"臺南市山上區","state_name":null,"city_name":"臺南市"},{"zipcode":"744","name":"新市區","full_name":"臺南市新市區","state_name":null,"city_name":"臺南市"},{"zipcode":"745","name":"安定區","full_name":"臺南市安定區","state_name":null,"city_name":"臺南市"},{"zipcode":"800","name":"新興區","full_name":"高雄市新興區","state_name":null,"city_name":"高雄市"},{"zipcode":"801","name":"前金區","full_name":"高雄市前金區","state_name":null,"city_name":"高雄市"},{"zipcode":"802","name":"苓雅區","full_name":"高雄市苓雅區","state_name":null,"city_name":"高雄市"},{"zipcode":"803","name":"鹽埕區","full_name":"高雄市鹽埕區","state_name":null,"city_name":"高雄市"},{"zipcode":"804","name":"鼓山區","full_name":"高雄市鼓山區","state_name":null,"city_name":"高雄市"},{"zipcode":"805","name":"旗津區","full_name":"高雄市旗津區","state_name":null,"city_name":"高雄市"},{"zipcode":"806","name":"前鎮區","full_name":"高雄市前鎮區","state_name":null,"city_name":"高雄市"},{"zipcode":"807","name":"三民區","full_name":"高雄市三民區","state_name":null,"city_name":"高雄市"},{"zipcode":"811","name":"楠梓區","full_name":"高雄市楠梓區","state_name":null,"city_name":"高雄市"},{"zipcode":"812","name":"小港區","full_name":"高雄市小港區","state_name":null,"city_name":"高雄市"},{"zipcode":"813","name":"左營區","full_name":"高雄市左營區","state_name":null,"city_name":"高雄市"},{"zipcode":"814","name":"仁武區","full_name":"高雄市仁武區","state_name":null,"city_name":"高雄市"},{"zipcode":"815","name":"大社區","full_name":"高雄市大社區","state_name":null,"city_name":"高雄市"},{"zipcode":"817","name":"東沙群島","full_name":"南海島東沙群島","state_name":null,"city_name":"南海島"},{"zipcode":"819","name":"南沙群島","full_name":"南海島南沙群島","state_name":null,"city_name":"南海島"},{"zipcode":"820","name":"岡山區","full_name":"高雄市岡山區","state_name":null,"city_name":"高雄市"},{"zipcode":"821","name":"路竹區","full_name":"高雄市路竹區","state_name":null,"city_name":"高雄市"},{"zipcode":"822","name":"阿蓮區","full_name":"高雄市阿蓮區","state_name":null,"city_name":"高雄市"},{"zipcode":"823","name":"田寮區","full_name":"高雄市田寮區","state_name":null,"city_name":"高雄市"},{"zipcode":"824","name":"燕巢區","full_name":"高雄市燕巢區","state_name":null,"city_name":"高雄市"},{"zipcode":"825","name":"橋頭區","full_name":"高雄市橋頭區","state_name":null,"city_name":"高雄市"},{"zipcode":"826","name":"梓官區","full_name":"高雄市梓官區","state_name":null,"city_name":"高雄市"},{"zipcode":"827","name":"彌陀區","full_name":"高雄市彌陀區","state_name":null,"city_name":"高雄市"},{"zipcode":"828","name":"永安區","full_name":"高雄市永安區","state_name":null,"city_name":"高雄市"},{"zipcode":"829","name":"湖內區","full_name":"高雄市湖內區","state_name":null,"city_name":"高雄市"},{"zipcode":"830","name":"鳳山區","full_name":"高雄市鳳山區","state_name":null,"city_name":"高雄市"},{"zipcode":"831","name":"大寮區","full_name":"高雄市大寮區","state_name":null,"city_name":"高雄市"},{"zipcode":"832","name":"林園區","full_name":"高雄市林園區","state_name":null,"city_name":"高雄市"},{"zipcode":"833","name":"鳥松區","full_name":"高雄市鳥松區","state_name":null,"city_name":"高雄市"},{"zipcode":"840","name":"大樹區","full_name":"高雄市大樹區","state_name":null,"city_name":"高雄市"},{"zipcode":"842","name":"旗山區","full_name":"高雄市旗山區","state_name":null,"city_name":"高雄市"},{"zipcode":"843","name":"美濃區","full_name":"高雄市美濃區","state_name":null,"city_name":"高雄市"},{"zipcode":"844","name":"六龜區","full_name":"高雄市六龜區","state_name":null,"city_name":"高雄市"},{"zipcode":"845","name":"內門區","full_name":"高雄市內門區","state_name":null,"city_name":"高雄市"},{"zipcode":"846","name":"杉林區","full_name":"高雄市杉林區","state_name":null,"city_name":"高雄市"},{"zipcode":"847","name":"甲仙區","full_name":"高雄市甲仙區","state_name":null,"city_name":"高雄市"},{"zipcode":"848","name":"桃源區","full_name":"高雄市桃源區","state_name":null,"city_name":"高雄市"},{"zipcode":"849","name":"那瑪夏區","full_name":"高雄市那瑪夏區","state_name":null,"city_name":"高雄市"},{"zipcode":"851","name":"茂林區","full_name":"高雄市茂林區","state_name":null,"city_name":"高雄市"},{"zipcode":"852","name":"茄萣區","full_name":"高雄市茄萣區","state_name":null,"city_name":"高雄市"},{"zipcode":"880","name":"馬公市","full_name":"澎湖縣馬公市","state_name":null,"city_name":"澎湖縣"},{"zipcode":"881","name":"西嶼鄉","full_name":"澎湖縣西嶼鄉","state_name":null,"city_name":"澎湖縣"},{"zipcode":"882","name":"望安鄉","full_name":"澎湖縣望安鄉","state_name":null,"city_name":"澎湖縣"},{"zipcode":"883","name":"七美鄉","full_name":"澎湖縣七美鄉","state_name":null,"city_name":"澎湖縣"},{"zipcode":"884","name":"白沙鄉","full_name":"澎湖縣白沙鄉","state_name":null,"city_name":"澎湖縣"},{"zipcode":"885","name":"湖西鄉","full_name":"澎湖縣湖西鄉","state_name":null,"city_name":"澎湖縣"},{"zipcode":"890","name":"金沙鎮","full_name":"金門縣金沙鎮","state_name":null,"city_name":"金門縣"},{"zipcode":"891","name":"金湖鎮","full_name":"金門縣金湖鎮","state_name":null,"city_name":"金門縣"},{"zipcode":"892","name":"金寧鄉","full_name":"金門縣金寧鄉","state_name":null,"city_name":"金門縣"},{"zipcode":"893","name":"金城鎮","full_name":"金門縣金城鎮","state_name":null,"city_name":"金門縣"},{"zipcode":"894","name":"烈嶼鄉","full_name":"金門縣烈嶼鄉","state_name":null,"city_name":"金門縣"},{"zipcode":"896","name":"烏坵鄉","full_name":"金門縣烏坵鄉","state_name":null,"city_name":"金門縣"},{"zipcode":"900","name":"屏東市","full_name":"屏東縣屏東市","state_name":null,"city_name":"屏東縣"},{"zipcode":"901","name":"三地門鄉","full_name":"屏東縣三地門鄉","state_name":null,"city_name":"屏東縣"},{"zipcode":"902","name":"霧臺鄉","full_name":"屏東縣霧臺鄉","state_name":null,"city_name":"屏東縣"},{"zipcode":"903","name":"瑪家鄉","full_name":"屏東縣瑪家鄉","state_name":null,"city_name":"屏東縣"},{"zipcode":"904","name":"九如鄉","full_name":"屏東縣九如鄉","state_name":null,"city_name":"屏東縣"},{"zipcode":"905","name":"里港鄉","full_name":"屏東縣里港鄉","state_name":null,"city_name":"屏東縣"},{"zipcode":"906","name":"高樹鄉","full_name":"屏東縣高樹鄉","state_name":null,"city_name":"屏東縣"},{"zipcode":"907","name":"鹽埔鄉","full_name":"屏東縣鹽埔鄉","state_name":null,"city_name":"屏東縣"},{"zipcode":"908","name":"長治鄉","full_name":"屏東縣長治鄉","state_name":null,"city_name":"屏東縣"},{"zipcode":"909","name":"麟洛鄉","full_name":"屏東縣麟洛鄉","state_name":null,"city_name":"屏東縣"},{"zipcode":"911","name":"竹田鄉","full_name":"屏東縣竹田鄉","state_name":null,"city_name":"屏東縣"},{"zipcode":"912","name":"內埔鄉","full_name":"屏東縣內埔鄉","state_name":null,"city_name":"屏東縣"},{"zipcode":"913","name":"萬丹鄉","full_name":"屏東縣萬丹鄉","state_name":null,"city_name":"屏東縣"},{"zipcode":"920","name":"潮州鎮","full_name":"屏東縣潮州鎮","state_name":null,"city_name":"屏東縣"},{"zipcode":"921","name":"泰武鄉","full_name":"屏東縣泰武鄉","state_name":null,"city_name":"屏東縣"},{"zipcode":"922","name":"來義鄉","full_name":"屏東縣來義鄉","state_name":null,"city_name":"屏東縣"},{"zipcode":"923","name":"萬巒鄉","full_name":"屏東縣萬巒鄉","state_name":null,"city_name":"屏東縣"},{"zipcode":"924","name":"崁頂鄉","full_name":"屏東縣崁頂鄉","state_name":null,"city_name":"屏東縣"},{"zipcode":"925","name":"新埤鄉","full_name":"屏東縣新埤鄉","state_name":null,"city_name":"屏東縣"},{"zipcode":"926","name":"南州鄉","full_name":"屏東縣南州鄉","state_name":null,"city_name":"屏東縣"},{"zipcode":"927","name":"林邊鄉","full_name":"屏東縣林邊鄉","state_name":null,"city_name":"屏東縣"},{"zipcode":"928","name":"東港鎮","full_name":"屏東縣東港鎮","state_name":null,"city_name":"屏東縣"},{"zipcode":"929","name":"琉球鄉","full_name":"屏東縣琉球鄉","state_name":null,"city_name":"屏東縣"},{"zipcode":"931","name":"佳冬鄉","full_name":"屏東縣佳冬鄉","state_name":null,"city_name":"屏東縣"},{"zipcode":"932","name":"新園鄉","full_name":"屏東縣新園鄉","state_name":null,"city_name":"屏東縣"},{"zipcode":"940","name":"枋寮鄉","full_name":"屏東縣枋寮鄉","state_name":null,"city_name":"屏東縣"},{"zipcode":"941","name":"枋山鄉","full_name":"屏東縣枋山鄉","state_name":null,"city_name":"屏東縣"},{"zipcode":"942","name":"春日鄉","full_name":"屏東縣春日鄉","state_name":null,"city_name":"屏東縣"},{"zipcode":"943","name":"獅子鄉","full_name":"屏東縣獅子鄉","state_name":null,"city_name":"屏東縣"},{"zipcode":"944","name":"車城鄉","full_name":"屏東縣車城鄉","state_name":null,"city_name":"屏東縣"},{"zipcode":"945","name":"牡丹鄉","full_name":"屏東縣牡丹鄉","state_name":null,"city_name":"屏東縣"},{"zipcode":"946","name":"恆春鎮","full_name":"屏東縣恆春鎮","state_name":null,"city_name":"屏東縣"},{"zipcode":"947","name":"滿州鄉","full_name":"屏東縣滿州鄉","state_name":null,"city_name":"屏東縣"},{"zipcode":"950","name":"臺東市","full_name":"臺東縣臺東市","state_name":null,"city_name":"臺東縣"},{"zipcode":"951","name":"綠島鄉","full_name":"臺東縣綠島鄉","state_name":null,"city_name":"臺東縣"},{"zipcode":"952","name":"蘭嶼鄉","full_name":"臺東縣蘭嶼鄉","state_name":null,"city_name":"臺東縣"},{"zipcode":"953","name":"延平鄉","full_name":"臺東縣延平鄉","state_name":null,"city_name":"臺東縣"},{"zipcode":"954","name":"卑南鄉","full_name":"臺東縣卑南鄉","state_name":null,"city_name":"臺東縣"},{"zipcode":"955","name":"鹿野鄉","full_name":"臺東縣鹿野鄉","state_name":null,"city_name":"臺東縣"},{"zipcode":"956","name":"關山鎮","full_name":"臺東縣關山鎮","state_name":null,"city_name":"臺東縣"},{"zipcode":"957","name":"海端鄉","full_name":"臺東縣海端鄉","state_name":null,"city_name":"臺東縣"},{"zipcode":"958","name":"池上鄉","full_name":"臺東縣池上鄉","state_name":null,"city_name":"臺東縣"},{"zipcode":"959","name":"東河鄉","full_name":"臺東縣東河鄉","state_name":null,"city_name":"臺東縣"},{"zipcode":"961","name":"成功鎮","full_name":"臺東縣成功鎮","state_name":null,"city_name":"臺東縣"},{"zipcode":"962","name":"長濱鄉","full_name":"臺東縣長濱鄉","state_name":null,"city_name":"臺東縣"},{"zipcode":"963","name":"太麻里鄉","full_name":"臺東縣太麻里鄉","state_name":null,"city_name":"臺東縣"},{"zipcode":"964","name":"金峰鄉","full_name":"臺東縣金峰鄉","state_name":null,"city_name":"臺東縣"},{"zipcode":"965","name":"大武鄉","full_name":"臺東縣大武鄉","state_name":null,"city_name":"臺東縣"},{"zipcode":"966","name":"達仁鄉","full_name":"臺東縣達仁鄉","state_name":null,"city_name":"臺東縣"},{"zipcode":"970","name":"花蓮市","full_name":"花蓮縣花蓮市","state_name":null,"city_name":"花蓮縣"},{"zipcode":"971","name":"新城鄉","full_name":"花蓮縣新城鄉","state_name":null,"city_name":"花蓮縣"},{"zipcode":"972","name":"秀林鄉","full_name":"花蓮縣秀林鄉","state_name":null,"city_name":"花蓮縣"},{"zipcode":"973","name":"吉安鄉","full_name":"花蓮縣吉安鄉","state_name":null,"city_name":"花蓮縣"},{"zipcode":"974","name":"壽豐鄉","full_name":"花蓮縣壽豐鄉","state_name":null,"city_name":"花蓮縣"},{"zipcode":"975","name":"鳳林鎮","full_name":"花蓮縣鳳林鎮","state_name":null,"city_name":"花蓮縣"},{"zipcode":"976","name":"光復鄉","full_name":"花蓮縣光復鄉","state_name":null,"city_name":"花蓮縣"},{"zipcode":"977","name":"豐濱鄉","full_name":"花蓮縣豐濱鄉","state_name":null,"city_name":"花蓮縣"},{"zipcode":"978","name":"瑞穗鄉","full_name":"花蓮縣瑞穗鄉","state_name":null,"city_name":"花蓮縣"},{"zipcode":"979","name":"萬榮鄉","full_name":"花蓮縣萬榮鄉","state_name":null,"city_name":"花蓮縣"},{"zipcode":"981","name":"玉里鎮","full_name":"花蓮縣玉里鎮","state_name":null,"city_name":"花蓮縣"},{"zipcode":"982","name":"卓溪鄉","full_name":"花蓮縣卓溪鄉","state_name":null,"city_name":"花蓮縣"},{"zipcode":"983","name":"富里鄉","full_name":"花蓮縣富里鄉","state_name":null,"city_name":"花蓮縣"}]